[{"OBJECT_NAME":"STARLINK-34810","OBJECT_ID":"2025-165N","EPOCH":"2026-03-09T17:25:30.860832","MEAN_MOTION":15.0565435,"ECCENTRICITY":0.00011921,"INCLINATION":97.6017,"RA_OF_ASC_NODE":147.2304,"ARG_OF_PERICENTER":108.3735,"MEAN_ANOMALY":251.7622,"EPHEMERIS_TYPE":0,"CLASSIFICATION_TYPE":"U","NORAD_CAT_ID":65068,"ELEMENT_SET_NO":999,"REV_AT_EPOCH":3479,"BSTAR":0.00027894492,"MEAN_MOTION_DOT":3.967e-5,"MEAN_MOTION_DDOT":0},{"OBJECT_NAME":"FENGYUN 1C DEB","OBJECT_ID":"1999-025CJB","EPOCH":"2026-03-04T10:30:16.287264","MEAN_MOTION":14.84272597,"ECCENTRICITY":0.00915644,"INCLINATION":98.0869,"RA_OF_ASC_NODE":145.0566,"ARG_OF_PERICENTER":112.3308,"MEAN_ANOMALY":248.7643,"EPHEMERIS_TYPE":0,"CLASSIFICATION_TYPE":"U","NORAD_CAT_ID":31837,"ELEMENT_SET_NO":999,"REV_AT_EPOCH":99570,"BSTAR":0.0020173845,"MEAN_MOTION_DOT":0.00018196,"MEAN_MOTION_DDOT":0}]
